CCSDS_OMM_VERS = 2.0
CREATION_DATE  = 
ORIGINATOR     = 

OBJECT_NAME    = SL-3 R/B
OBJECT_ID      = 1988-032B
CENTER_NAME    = EARTH
REF_FRAME      = TEME
TIME_SYSTEM    = UTC
MEAN_ELEMENT_THEORY = SGP/SGP4

EPOCH          = 2026-03-23T11:47:43.081440
MEAN_MOTION    = 15.20057747
ECCENTRICITY   = .002576
INCLINATION    = 97.5214
RA_OF_ASC_NODE = 65.6968
ARG_OF_PERICENTER = 181.6949
MEAN_ANOMALY   = 178.4202

EPHEMERIS_TYPE = 0
CLASSIFICATION_TYPE = U
NORAD_CAT_ID   = 19046
ELEMENT_SET_NO = 999
REV_AT_EPOCH   = 5420
BSTAR          = .25893E-3
MEAN_MOTION_DOT = .5564E-4
MEAN_MOTION_DDOT = 0

CCSDS_OMM_VERS = 2.0
CREATION_DATE  = 
ORIGINATOR     = 

OBJECT_NAME    = SL-16 R/B
OBJECT_ID      = 1988-039B
CENTER_NAME    = EARTH
REF_FRAME      = TEME
TIME_SYSTEM    = UTC
MEAN_ELEMENT_THEORY = SGP/SGP4

EPOCH          = 2026-03-23T07:08:44.587392
MEAN_MOTION    = 14.19617713
ECCENTRICITY   = .0023417
INCLINATION    = 71.0157
RA_OF_ASC_NODE = 39.7714
ARG_OF_PERICENTER = 314.7520
MEAN_ANOMALY   = 45.1699

EPHEMERIS_TYPE = 0
CLASSIFICATION_TYPE = U
NORAD_CAT_ID   = 19120
ELEMENT_SET_NO = 999
REV_AT_EPOCH   = 96031
BSTAR          = -.11295E-4
MEAN_MOTION_DOT = -.72E-6
MEAN_MOTION_DDOT = 0

CCSDS_OMM_VERS = 2.0
CREATION_DATE  = 
ORIGINATOR     = 

OBJECT_NAME    = COSMOS 1953
OBJECT_ID      = 1988-050A
CENTER_NAME    = EARTH
REF_FRAME      = TEME
TIME_SYSTEM    = UTC
MEAN_ELEMENT_THEORY = SGP/SGP4

EPOCH          = 2026-03-23T10:30:12.609216
MEAN_MOTION    = 15.28741216
ECCENTRICITY   = .0012549
INCLINATION    = 82.5082
RA_OF_ASC_NODE = 144.4192
ARG_OF_PERICENTER = 79.6553
MEAN_ANOMALY   = 280.6101

EPHEMERIS_TYPE = 0
CLASSIFICATION_TYPE = U
NORAD_CAT_ID   = 19210
ELEMENT_SET_NO = 999
REV_AT_EPOCH   = 3988
BSTAR          = .30551E-3
MEAN_MOTION_DOT = .8587E-4
MEAN_MOTION_DDOT = 0

CCSDS_OMM_VERS = 2.0
CREATION_DATE  = 
ORIGINATOR     = 

OBJECT_NAME    = SL-8 R/B
OBJECT_ID      = 1988-053B
CENTER_NAME    = EARTH
REF_FRAME      = TEME
TIME_SYSTEM    = UTC
MEAN_ELEMENT_THEORY = SGP/SGP4

EPOCH          = 2026-03-23T10:36:29.543040
MEAN_MOTION    = 14.38925040
ECCENTRICITY   = .0021529
INCLINATION    = 74.0451
RA_OF_ASC_NODE = 87.1142
ARG_OF_PERICENTER = 264.5940
MEAN_ANOMALY   = 258.2138

EPHEMERIS_TYPE = 0
CLASSIFICATION_TYPE = U
NORAD_CAT_ID   = 19257
ELEMENT_SET_NO = 999
REV_AT_EPOCH   = 97857
BSTAR          = .11571E-3
MEAN_MOTION_DOT = .331E-5
MEAN_MOTION_DDOT = 0

CCSDS_OMM_VERS = 2.0
CREATION_DATE  = 
ORIGINATOR     = 

OBJECT_NAME    = COSMOS 1975
OBJECT_ID      = 1988-093A
CENTER_NAME    = EARTH
REF_FRAME      = TEME
TIME_SYSTEM    = UTC
MEAN_ELEMENT_THEORY = SGP/SGP4

EPOCH          = 2026-03-23T11:24:56.547072
MEAN_MOTION    = 15.28250098
ECCENTRICITY   = .0013201
INCLINATION    = 82.5164
RA_OF_ASC_NODE = 103.8413
ARG_OF_PERICENTER = 118.6865
MEAN_ANOMALY   = 241.5703

EPHEMERIS_TYPE = 0
CLASSIFICATION_TYPE = U
NORAD_CAT_ID   = 19573
ELEMENT_SET_NO = 999
REV_AT_EPOCH   = 2151
BSTAR          = .27562E-3
MEAN_MOTION_DOT = .7636E-4
MEAN_MOTION_DDOT = 0

CCSDS_OMM_VERS = 2.0
CREATION_DATE  = 
ORIGINATOR     = 

OBJECT_NAME    = SL-14 R/B
OBJECT_ID      = 1988-093B
CENTER_NAME    = EARTH
REF_FRAME      = TEME
TIME_SYSTEM    = UTC
MEAN_ELEMENT_THEORY = SGP/SGP4

EPOCH          = 2026-03-23T08:16:40.677600
MEAN_MOTION    = 14.85672444
ECCENTRICITY   = .0020607
INCLINATION    = 82.5331
RA_OF_ASC_NODE = 29.2263
ARG_OF_PERICENTER = 357.5392
MEAN_ANOMALY   = 118.5770

EPHEMERIS_TYPE = 0
CLASSIFICATION_TYPE = U
NORAD_CAT_ID   = 19574
ELEMENT_SET_NO = 999
REV_AT_EPOCH   = 304
BSTAR          = .67681E-4
MEAN_MOTION_DOT = .613E-5
MEAN_MOTION_DDOT = 0

CCSDS_OMM_VERS = 2.0
CREATION_DATE  = 
ORIGINATOR     = 

OBJECT_NAME    = SL-16 R/B
OBJECT_ID      = 1988-102B
CENTER_NAME    = EARTH
REF_FRAME      = TEME
TIME_SYSTEM    = UTC
MEAN_ELEMENT_THEORY = SGP/SGP4

EPOCH          = 2026-03-23T11:12:11.746368
MEAN_MOTION    = 14.16155054
ECCENTRICITY   = .0014909
INCLINATION    = 70.9982
RA_OF_ASC_NODE = 122.5095
ARG_OF_PERICENTER = 340.3601
MEAN_ANOMALY   = 19.6946

EPHEMERIS_TYPE = 0
CLASSIFICATION_TYPE = U
NORAD_CAT_ID   = 19650
ELEMENT_SET_NO = 999
REV_AT_EPOCH   = 92884
BSTAR          = -.95912E-4
MEAN_MOTION_DOT = -.238E-5
MEAN_MOTION_DDOT = 0

CCSDS_OMM_VERS = 2.0
CREATION_DATE  = 
ORIGINATOR     = 

OBJECT_NAME    = INTERCOSMOS 24
OBJECT_ID      = 1989-080A
CENTER_NAME    = EARTH
REF_FRAME      = TEME
TIME_SYSTEM    = UTC
MEAN_ELEMENT_THEORY = SGP/SGP4

EPOCH          = 2026-03-23T09:14:45.737376
MEAN_MOTION    = 12.59576083
ECCENTRICITY   = .1186753
INCLINATION    = 82.6014
RA_OF_ASC_NODE = 95.4831
ARG_OF_PERICENTER = 261.0005
MEAN_ANOMALY   = 85.5228

EPHEMERIS_TYPE = 0
CLASSIFICATION_TYPE = U
NORAD_CAT_ID   = 20261
ELEMENT_SET_NO = 999
REV_AT_EPOCH   = 66852
BSTAR          = .16491E-3
MEAN_MOTION_DOT = .556E-5
MEAN_MOTION_DDOT = 0

CCSDS_OMM_VERS = 2.0
CREATION_DATE  = 
ORIGINATOR     = 

OBJECT_NAME    = SL-14 R/B
OBJECT_ID      = 1989-080C
CENTER_NAME    = EARTH
REF_FRAME      = TEME
TIME_SYSTEM    = UTC
MEAN_ELEMENT_THEORY = SGP/SGP4

EPOCH          = 2026-03-23T11:29:59.141472
MEAN_MOTION    = 12.50507556
ECCENTRICITY   = .1230855
INCLINATION    = 82.5965
RA_OF_ASC_NODE = 164.3378
ARG_OF_PERICENTER = 153.2452
MEAN_ANOMALY   = 213.7959

EPHEMERIS_TYPE = 0
CLASSIFICATION_TYPE = U
NORAD_CAT_ID   = 20262
ELEMENT_SET_NO = 999
REV_AT_EPOCH   = 66187
BSTAR          = .12872E-3
MEAN_MOTION_DOT = .453E-5
MEAN_MOTION_DDOT = 0

CCSDS_OMM_VERS = 2.0
CREATION_DATE  = 
ORIGINATOR     = 

OBJECT_NAME    = DELTA 1 R/B
OBJECT_ID      = 1989-089B
CENTER_NAME    = EARTH
REF_FRAME      = TEME
TIME_SYSTEM    = UTC
MEAN_ELEMENT_THEORY = SGP/SGP4

EPOCH          = 2026-03-23T13:17:36.982464
MEAN_MOTION    = 14.50674138
ECCENTRICITY   = .0070678
INCLINATION    = 97.0695
RA_OF_ASC_NODE = 287.7863
ARG_OF_PERICENTER = 79.0434
MEAN_ANOMALY   = 281.8705

EPHEMERIS_TYPE = 0
CLASSIFICATION_TYPE = U
NORAD_CAT_ID   = 20323
ELEMENT_SET_NO = 999
REV_AT_EPOCH   = 89774
BSTAR          = .87602E-4
MEAN_MOTION_DOT = .32E-5
MEAN_MOTION_DDOT = 0

CCSDS_OMM_VERS = 2.0
CREATION_DATE  = 
ORIGINATOR     = 

OBJECT_NAME    = ARIANE 40 R/B
OBJECT_ID      = 1990-005H
CENTER_NAME    = EARTH
REF_FRAME      = TEME
TIME_SYSTEM    = UTC
MEAN_ELEMENT_THEORY = SGP/SGP4

EPOCH          = 2026-03-23T10:24:35.806464
MEAN_MOTION    = 14.39879065
ECCENTRICITY   = .0010711
INCLINATION    = 98.3055
RA_OF_ASC_NODE = 142.6838
ARG_OF_PERICENTER = 157.6221
MEAN_ANOMALY   = 202.5437

EPHEMERIS_TYPE = 0
CLASSIFICATION_TYPE = U
NORAD_CAT_ID   = 20443
ELEMENT_SET_NO = 999
REV_AT_EPOCH   = 89478
BSTAR          = .98829E-4
MEAN_MOTION_DOT = .268E-5
MEAN_MOTION_DDOT = 0

CCSDS_OMM_VERS = 2.0
CREATION_DATE  = 
ORIGINATOR     = 

OBJECT_NAME    = DELTA 2 R/B(1)
OBJECT_ID      = 1990-008B
CENTER_NAME    = EARTH
REF_FRAME      = TEME
TIME_SYSTEM    = UTC
MEAN_ELEMENT_THEORY = SGP/SGP4

EPOCH          = 2026-03-23T06:57:55.733760
MEAN_MOTION    = 15.57716328
ECCENTRICITY   = .0079945
INCLINATION    = 35.6034
RA_OF_ASC_NODE = 85.4758
ARG_OF_PERICENTER = 25.1791
MEAN_ANOMALY   = 335.2813

EPHEMERIS_TYPE = 0
CLASSIFICATION_TYPE = U
NORAD_CAT_ID   = 20453
ELEMENT_SET_NO = 999
REV_AT_EPOCH   = 92825
BSTAR          = .82029E-3
MEAN_MOTION_DOT = .73697E-3
MEAN_MOTION_DDOT = 0

